[
  {
    "id": "2cc176a02697",
    "name": "Ada's European Market",
    "desc": "",
    "street": "8301 W. Grand Ave",
    "city": "River Grove",
    "state": "IL",
    "zip": "60171",
    "phone": "",
    "products": ["eggs", "butter", "honey"]
  },
  {
    "id": "b80ee6ce9c3e",
    "name": "Amish Healthy Foods",
    "desc": "",
    "street": "1023 N. Western",
    "city": "Chicago",
    "state": "IL",
    "zip": "60622",
    "phone": "",
    "products": ["milk", "chicken", "jam"]
  },
  {
    "id": "89aadf362518",
    "name": "Andy's Deli",
    "desc": "",
    "street": "5442 N. Milwaukee",
    "city": "Chicago",
    "state": "IL",
    "zip": "60630",
    "phone": "",
    "products": ["eggs", "milk", "butter", "honey"]
  },
  {
    "id": "cab1eef31a37",
    "name": "Ania's Polish Deli",
    "desc": "",
    "street": "890 S Rand Rd",
    "city": "Lake Zurich",
    "state": "IL",
    "zip": "60047",
    "phone": "",
    "products": ["eggs", "milk", "butter", "chicken", "honey", "jam"]
  },
  {
    "id": "839592e14fb8",
    "name": "Ann's Bakery",
    "desc": "",
    "street": "2158 W. Chicago Ave",
    "city": "Chicago",
    "state": "IL",
    "zip": "60622",
    "phone": "",
    "products": ["eggs", "milk", "chicken"]
  },
  {
    "id": "1f4cb25b900e",
    "name": "Avenue Food Mart",
    "desc": "",
    "street": "6850 W. Belmont Ave",
    "city": "Chicago",
    "state": "IL",
    "zip": "60634",
    "phone": "",
    "products": ["eggs", "milk", "butter"]
  },
  {
    "id": "5c65e7711dc6",
    "name": "Bacik Deli",
    "desc": "",
    "street": "7744 N. Milwaukee Ave",
    "city": "Niles",
    "state": "IL",
    "zip": "60714",
    "phone": "",
    "products": ["eggs"]
  },
  {
    "id": "767bcb6889ca",
    "name": "Baranowski",
    "desc": "",
    "street": "9653 W Grand Ave",
    "city": "Franklin Park",
    "state": "IL",
    "zip": "60131",
    "phone": "",
    "products": ["eggs", "milk", "butter", "chicken"]
  },
  {
    "id": "25d158932efc",
    "name": "Berwyn Fruit Market",
    "desc": "",
    "street": "3811 S. Harlem Ave",
    "city": "Berwyn",
    "state": "IL",
    "zip": "60402",
    "phone": "",
    "products": ["eggs", "milk", "butter", "honey"]
  },
  {
    "id": "7db3b4b5d60e",
    "name": "Bristol Deli",
    "desc": "",
    "street": "5205 W. Belmont Ave",
    "city": "Chicago",
    "state": "IL",
    "zip": "60641",
    "phone": "",
    "products": ["eggs"]
  },
  {
    "id": "b4724ce2b6b4",
    "name": "Brookhaven",
    "desc": "",
    "street": "100 Burr Ridge Parkway",
    "city": "Burr Ridge",
    "state": "IL",
    "zip": "60527",
    "phone": "",
    "products": ["eggs", "milk", "butter", "honey"]
  },
  {
    "id": "10e177afe1b8",
    "name": "Brookhaven",
    "desc": "",
    "street": "7516 S. Cass Avenue",
    "city": "Darien",
    "state": "IL",
    "zip": "60561",
    "phone": "",
    "products": ["eggs", "milk", "butter", "honey", "jam"]
  },
  {
    "id": "ccd75524496d",
    "name": "Brookhaven",
    "desc": "",
    "street": "19818 North La Grange Road",
    "city": "Mokena",
    "state": "IL",
    "zip": "60448",
    "phone": "",
    "products": ["eggs", "butter", "jam"]
  },
  {
    "id": "5af473f40eee",
    "name": "Butera",
    "desc": "",
    "street": "100 S. Randall Road",
    "city": "Algonquin",
    "state": "IL",
    "zip": "60192",
    "phone": "",
    "products": ["eggs", "butter", "honey"]
  },
  {
    "id": "b7ffc9628952",
    "name": "Butera",
    "desc": "",
    "street": "1555 Lee St.",
    "city": "Des Plaines",
    "state": "IL",
    "zip": "60018",
    "phone": "",
    "products": ["eggs", "jam"]
  },
  {
    "id": "4538aee69135",
    "name": "Butera",
    "desc": "",
    "street": "20825 S. LaGrange Rd",
    "city": "Frankfort",
    "state": "IL",
    "zip": "60423",
    "phone": "",
    "products": ["eggs"]
  },
  {
    "id": "71361cc4fbf9",
    "name": "Butera",
    "desc": "",
    "street": "815 Center St",
    "city": "Grayslake",
    "state": "IL",
    "zip": "60030",
    "phone": "",
    "products": ["eggs", "butter", "honey"]
  },
  {
    "id": "73f152e70472",
    "name": "Butera",
    "desc": "",
    "street": "4761 N. Nagle Ave",
    "city": "Harwood Heights",
    "state": "IL",
    "zip": "60706",
    "phone": "",
    "products": ["eggs"]
  },
  {
    "id": "d940b75b504f",
    "name": "Butera",
    "desc": "",
    "street": "1500 E. Grand  Ave",
    "city": "Lindenhurst",
    "state": "IL",
    "zip": "60046",
    "phone": "",
    "products": ["eggs"]
  },
  {
    "id": "b6b8cc72ecbb",
    "name": "Butera",
    "desc": "",
    "street": "550 Lake Street",
    "city": "Roselle",
    "state": "IL",
    "zip": "60172",
    "phone": "",
    "products": ["eggs", "butter"]
  },
  {
    "id": "72bb21583dfe",
    "name": "Butera",
    "desc": "",
    "street": "4411 N. Cumberland Ave",
    "city": "Norridge",
    "state": "IL",
    "zip": "60706",
    "phone": "",
    "products": ["eggs", "butter"]
  },
  {
    "id": "6c6684c5252d",
    "name": "Butera",
    "desc": "",
    "street": "2070 N Rand Rd",
    "city": "Palatine",
    "state": "IL",
    "zip": "60074",
    "phone": "",
    "products": ["eggs", "butter", "honey"]
  },
  {
    "id": "ad979efaf9f1",
    "name": "Caputo's",
    "desc": "",
    "street": "166 E Lake St",
    "city": "Bloomingdale",
    "state": "IL",
    "zip": "60108",
    "phone": "",
    "products": ["eggs", "milk", "butter"]
  },
  {
    "id": "e922d69245d9",
    "name": "Caputo's",
    "desc": "",
    "street": "510 W. Lake Street",
    "city": "Addison",
    "state": "IL",
    "zip": "60101",
    "phone": "",
    "products": ["eggs", "milk", "butter"]
  },
  {
    "id": "f6f7d32f9820",
    "name": "Caputo's",
    "desc": "",
    "street": "520 E North Ave",
    "city": "Carol Stream",
    "state": "IL",
    "zip": "60188",
    "phone": "",
    "products": ["eggs", "milk", "butter"]
  },
  {
    "id": "3c4eb62f9a86",
    "name": "Caputo's",
    "desc": "",
    "street": "2400 N. Harlem Ave",
    "city": "Elmwood Park",
    "state": "IL",
    "zip": "60707",
    "phone": "",
    "products": ["eggs", "milk", "butter"]
  },
  {
    "id": "a53ded98294d",
    "name": "Caputo's",
    "desc": "",
    "street": "1250 Lake St",
    "city": "Hanover Park",
    "state": "IL",
    "zip": "60133",
    "phone": "",
    "products": ["eggs", "milk", "butter"]
  },
  {
    "id": "5fe3c0bd93d3",
    "name": "Caputo's",
    "desc": "",
    "street": "3115 111th St",
    "city": "Naperville",
    "state": "IL",
    "zip": "60564",
    "phone": "",
    "products": ["eggs", "milk", "butter"]
  },
  {
    "id": "e58e982c3364",
    "name": "Celina's Deli",
    "desc": "",
    "street": "14164 McCarthy Street",
    "city": "Lemont",
    "state": "IL",
    "zip": "60439",
    "phone": "",
    "products": ["eggs", "milk", "butter", "jam", "turkey"]
  },
  {
    "id": "7042f414cac3",
    "name": "City Fresh Market",
    "desc": "",
    "street": "3201 W. Devon Ave",
    "city": "Chicago",
    "state": "IL",
    "zip": "60659",
    "phone": "",
    "products": ["eggs", "milk", "butter"]
  },
  {
    "id": "d5d5296214ee",
    "name": "Deli 4 You",
    "desc": "",
    "street": "1601 S. Randall Road",
    "city": "Algonquin",
    "state": "IL",
    "zip": "60102",
    "phone": "",
    "products": ["eggs", "milk", "butter", "turkey"]
  },
  {
    "id": "50ebe2ec077e",
    "name": "Deli 4 You",
    "desc": "",
    "street": "4343 N. Harlem Ave",
    "city": "Norridge",
    "state": "IL",
    "zip": "60706",
    "phone": "",
    "products": ["eggs", "milk", "butter", "chicken", "honey", "jam"]
  },
  {
    "id": "2071b3128f2e",
    "name": "Deli 4 You",
    "desc": "",
    "street": "9 E. Camp McDonald Road",
    "city": "Prospect Heights",
    "state": "IL",
    "zip": "60070",
    "phone": "",
    "products": ["eggs", "milk", "butter", "honey", "jam"]
  },
  {
    "id": "d9278979e50b",
    "name": "Deli 4 You",
    "desc": "",
    "street": "560 S. Roselle Road",
    "city": "Schaumburg",
    "state": "IL",
    "zip": "60193",
    "phone": "",
    "products": ["eggs", "milk", "butter", "honey", "jam", "turkey"]
  },
  {
    "id": "cbc6cca25c24",
    "name": "Devon Market",
    "desc": "",
    "street": "1440 W. Devon",
    "city": "Chicago",
    "state": "IL",
    "zip": "60660",
    "phone": "",
    "products": ["eggs", "milk", "butter", "honey", "jam"]
  },
  {
    "id": "db46a860b14d",
    "name": "Alex Super Deli",
    "desc": "",
    "street": "3055 N. Milwaukee Ave",
    "city": "Chicago",
    "state": "IL",
    "zip": "60618",
    "phone": "",
    "products": ["eggs"]
  },
  {
    "id": "e25356738ba3",
    "name": "Eurofresh Palatine",
    "desc": "",
    "street": "130 W. Northwest Highway",
    "city": "Palatine",
    "state": "IL",
    "zip": "60067",
    "phone": "",
    "products": ["eggs", "milk", "butter", "chicken", "honey", "jam", "turkey"]
  },
  {
    "id": "ef792a4d117f",
    "name": "Ewa's Polish Deli",
    "desc": "",
    "street": "160 E. Lake Street",
    "city": "Bloomingdale",
    "state": "IL",
    "zip": "60108",
    "phone": "",
    "products": ["eggs", "milk", "chicken", "honey", "jam"]
  },
  {
    "id": "fbbc4aea2ce3",
    "name": "Franks Fresh Market",
    "desc": "",
    "street": "470 Georgetown Square",
    "city": "Wood Dale",
    "state": "IL",
    "zip": "60191",
    "phone": "",
    "products": ["eggs", "milk", "butter"]
  },
  {
    "id": "96744eec7f80",
    "name": "Fresh Farms",
    "desc": "",
    "street": "8203 W. Golf",
    "city": "Niles",
    "state": "IL",
    "zip": "60714",
    "phone": "",
    "products": ["eggs", "milk", "butter", "honey", "jam"]
  },
  {
    "id": "c35dc5263033",
    "name": "Niles Grand LLC",
    "desc": "",
    "street": "5740 West Touhy Avenue",
    "city": "Niles",
    "state": "IL",
    "zip": "60714",
    "phone": "",
    "products": ["eggs", "milk", "butter", "honey", "jam"]
  },
  {
    "id": "aa94dd57295f",
    "name": "Fresh Market Place",
    "desc": "",
    "street": "2134 N. Western Ave",
    "city": "Chicago",
    "state": "IL",
    "zip": "60647",
    "phone": "",
    "products": ["eggs", "milk", "butter", "honey"]
  },
  {
    "id": "d2d84ca7cb8e",
    "name": "Gambino's Fresh Market",
    "desc": "",
    "street": "3720 25th Ave",
    "city": "Schiller Park",
    "state": "IL",
    "zip": "60176",
    "phone": "",
    "products": ["eggs"]
  },
  {
    "id": "9539b615fb48",
    "name": "Garden Fresh Market",
    "desc": "",
    "street": "770 S. Buffalo Grove Road",
    "city": "Buffalo Grove",
    "state": "IL",
    "zip": "60089",
    "phone": "",
    "products": ["eggs", "milk", "butter", "honey", "jam"]
  },
  {
    "id": "98913cee1bcb",
    "name": "Garden Fresh Market",
    "desc": "",
    "street": "390 Townline Road",
    "city": "Mundelein",
    "state": "IL",
    "zip": "60060",
    "phone": "",
    "products": ["eggs", "milk", "butter", "honey", "jam"]
  },
  {
    "id": "af8a4548041d",
    "name": "Gepperth's Meat Market",
    "desc": "",
    "street": "1964 North Halsted",
    "city": "Chicago",
    "state": "IL",
    "zip": "60614",
    "phone": "",
    "products": ["eggs", "chicken"]
  },
  {
    "id": "1c193a235346",
    "name": "Gorka Deli",
    "desc": "",
    "street": "15118 S. La Grange Road",
    "city": "Orland Park",
    "state": "IL",
    "zip": "60462",
    "phone": "",
    "products": ["eggs", "butter", "chicken"]
  },
  {
    "id": "0137ee0519ad",
    "name": "Harvest Fresh",
    "desc": "",
    "street": "100 E. Rand Road",
    "city": "Arlington Heights",
    "state": "IL",
    "zip": "60004",
    "phone": "",
    "products": ["eggs", "milk", "butter", "honey", "jam"]
  },
  {
    "id": "d3bca21a1f4d",
    "name": "Helen's Deli",
    "desc": "",
    "street": "272 W. Irving Park Road",
    "city": "Wood Dale",
    "state": "IL",
    "zip": "60191",
    "phone": "",
    "products": ["eggs"]
  },
  {
    "id": "5f3613e78247",
    "name": "Hetman Deli",
    "desc": "",
    "street": "5513 W. Belmont Ave",
    "city": "Chicago",
    "state": "IL",
    "zip": "60641",
    "phone": "",
    "products": ["eggs"]
  },
  {
    "id": "cf0d5d6aa4da",
    "name": "Hickory Hills Deli",
    "desc": "",
    "street": "8824 S. Roberts Rd",
    "city": "Hickory Hills",
    "state": "IL",
    "zip": "60457",
    "phone": "",
    "products": ["eggs", "butter", "chicken"]
  },
  {
    "id": "e92e5634cd6b",
    "name": "Jerry's Fruit Market",
    "desc": "",
    "street": "7901 N. Milwaukee",
    "city": "Niles",
    "state": "IL",
    "zip": "60714",
    "phone": "",
    "products": ["eggs", "milk", "butter", "honey", "jam", "turkey"]
  },
  {
    "id": "91c89c443aab",
    "name": "Joe & Franks",
    "desc": "",
    "street": "8720 Ridgeland Ave",
    "city": "Oak Lawn",
    "state": "IL",
    "zip": "60453",
    "phone": "",
    "products": ["eggs", "milk", "butter", "chicken", "honey"]
  },
  {
    "id": "af8231dab244",
    "name": "KD Market",
    "desc": "",
    "street": "1102 S. Roselle Rd",
    "city": "Schaumburg",
    "state": "IL",
    "zip": "60193",
    "phone": "",
    "products": ["eggs", "milk", "butter", "honey", "jam"]
  },
  {
    "id": "565888032702",
    "name": "KD Market",
    "desc": "",
    "street": "9500 W. Irving Park Road",
    "city": "Schiller Park",
    "state": "IL",
    "zip": "60176",
    "phone": "",
    "products": ["eggs", "milk", "butter", "honey", "jam"]
  },
  {
    "id": "99ddbbe5912d",
    "name": "KD Market",
    "desc": "",
    "street": "835 W Dundee Rd",
    "city": "Wheeling",
    "state": "IL",
    "zip": "60090",
    "phone": "",
    "products": ["eggs", "milk", "butter", "honey"]
  },
  {
    "id": "db46fe42a50c",
    "name": "KD Market",
    "desc": "",
    "street": "1046 Elmhurst Road",
    "city": "Mount Prospect",
    "state": "IL",
    "zip": "60056",
    "phone": "",
    "products": ["eggs", "milk", "butter", "honey"]
  },
  {
    "id": "50be1fa8993c",
    "name": "Kolatek",
    "desc": "",
    "street": "2445 N. Harlem Avenue",
    "city": "Chicago",
    "state": "IL",
    "zip": "60707",
    "phone": "",
    "products": ["eggs", "milk", "butter"]
  },
  {
    "id": "da527fc9027c",
    "name": "Kordian's Market",
    "desc": "",
    "street": "6332 W. Higgins Ave",
    "city": "Chicago",
    "state": "IL",
    "zip": "60630",
    "phone": "",
    "products": ["eggs", "butter", "chicken", "honey", "jam"]
  },
  {
    "id": "c0f0353d55ea",
    "name": "Kurowski's Sausage Shop",
    "desc": "",
    "street": "2976 N. Milwaukee Ave",
    "city": "Chicago",
    "state": "IL",
    "zip": "60618",
    "phone": "",
    "products": ["eggs", "milk", "butter", "chicken"]
  },
  {
    "id": "d482d392eb8c",
    "name": "Lakeland Bakery & Deli",
    "desc": "",
    "street": "19 S. Route 12",
    "city": "Fox Lake",
    "state": "IL",
    "zip": "60020",
    "phone": "",
    "products": ["eggs"]
  },
  {
    "id": "b636d6ccc61e",
    "name": "Lassak Deli",
    "desc": "",
    "street": "8017 W. 103rd Street",
    "city": "Palos Hills",
    "state": "IL",
    "zip": "60465",
    "phone": "",
    "products": ["eggs", "milk", "butter", "chicken", "honey", "jam", "turkey"]
  },
  {
    "id": "f5364b6c3061",
    "name": "Little Polish Market",
    "desc": "",
    "street": "225 E Irving Park",
    "city": "Roselle",
    "state": "IL",
    "zip": "60172",
    "phone": "",
    "products": ["eggs", "milk", "chicken"]
  },
  {
    "id": "f9058501683a",
    "name": "Malincho Euro Market",
    "desc": "",
    "street": "1475 Lee Street",
    "city": "Des Plaines",
    "state": "IL",
    "zip": "60018",
    "phone": "",
    "products": ["eggs", "milk", "butter", "honey"]
  },
  {
    "id": "99f725450110",
    "name": "Market Place",
    "desc": "",
    "street": "4817 W Oakton Ave",
    "city": "Skokie",
    "state": "IL",
    "zip": "60077",
    "phone": "",
    "products": ["eggs", "milk", "honey", "jam"]
  },
  {
    "id": "0e9483bff583",
    "name": "Milk & Honey Farmstead",
    "desc": "",
    "street": "27451 West Illinois Route 176",
    "city": "Wauconda",
    "state": "IL",
    "zip": "60084",
    "phone": "",
    "products": ["eggs", "milk"]
  },
  {
    "id": "402ea6808e83",
    "name": "Montrose Deli",
    "desc": "",
    "street": "5411 W. Montrose Ave",
    "city": "Chicago",
    "state": "IL",
    "zip": "60641",
    "phone": "",
    "products": ["eggs", "milk", "butter", "honey"]
  },
  {
    "id": "75ccff85f33c",
    "name": "Montrose Food Mart & Deli",
    "desc": "",
    "street": "6601 W. Irving Park Rd",
    "city": "Chicago",
    "state": "IL",
    "zip": "60634",
    "phone": "",
    "products": ["eggs", "milk", "butter", "honey", "jam"]
  },
  {
    "id": "b6add11645d5",
    "name": "Montrose Food Mart & Deli",
    "desc": "",
    "street": "1731 W. Golf Road",
    "city": "Mount Prospect",
    "state": "IL",
    "zip": "60056",
    "phone": "",
    "products": ["eggs", "milk", "butter", "honey", "jam"]
  },
  {
    "id": "e63ad57af78e",
    "name": "Morse Fresh Market",
    "desc": "",
    "street": "1430 W. Morse Ave",
    "city": "Chicago",
    "state": "IL",
    "zip": "60626",
    "phone": "",
    "products": ["eggs", "honey"]
  },
  {
    "id": "e8cb10620301",
    "name": "Mundelein Deli",
    "desc": "",
    "street": "1460 Townline Road",
    "city": "Mundelein",
    "state": "IL",
    "zip": "60060",
    "phone": "",
    "products": ["eggs", "milk", "butter", "honey", "jam"]
  },
  {
    "id": "4ff8542af1b9",
    "name": "My Polish Deli",
    "desc": "",
    "street": "1234 E Lake St",
    "city": "Hanover Park",
    "state": "IL",
    "zip": "60133",
    "phone": "",
    "products": ["eggs", "milk", "jam"]
  },
  {
    "id": "cfbf452b854d",
    "name": "Naperville Market",
    "desc": "",
    "street": "955 W. 75th Street",
    "city": "Naperville",
    "state": "IL",
    "zip": "60565",
    "phone": "",
    "products": ["eggs", "milk", "butter", "honey"]
  },
  {
    "id": "17850d335caa",
    "name": "Niles Deli",
    "desc": "",
    "street": "8705 N. Milwaukee Ave",
    "city": "Niles",
    "state": "IL",
    "zip": "60714",
    "phone": "",
    "products": ["eggs"]
  },
  {
    "id": "4581e7c30659",
    "name": "Palos Deli & Liquors",
    "desc": "",
    "street": "10650 South Roberts Road",
    "city": "Palos Hills",
    "state": "IL",
    "zip": "60465",
    "phone": "",
    "products": ["eggs", "milk", "butter", "chicken"]
  },
  {
    "id": "9cc68eb98174",
    "name": "Pete’s Fresh Market",
    "desc": "",
    "street": "880 Roosevelt Road",
    "city": "Glen Ellyn",
    "state": "IL",
    "zip": "60137",
    "phone": "",
    "products": ["eggs"]
  },
  {
    "id": "465de37d2627",
    "name": "Pete’s Fresh Market",
    "desc": "",
    "street": "10280 S. Harlem Ave",
    "city": "Bridgeview",
    "state": "IL",
    "zip": "60455",
    "phone": "",
    "products": ["eggs", "milk", "butter"]
  },
  {
    "id": "f936e245a4bd",
    "name": "Pete’s Fresh Market",
    "desc": "",
    "street": "2526 W. Cermak Road",
    "city": "Chicago",
    "state": "IL",
    "zip": "60608",
    "phone": "",
    "products": ["eggs", "milk", "butter"]
  },
  {
    "id": "b1df3b5bab22",
    "name": "Pete’s Fresh Market",
    "desc": "",
    "street": "1100 State St",
    "city": "Lemont",
    "state": "IL",
    "zip": "60439",
    "phone": "",
    "products": ["eggs", "milk", "butter"]
  },
  {
    "id": "d77887763e37",
    "name": "Pete’s Fresh Market",
    "desc": "",
    "street": "259 Lake Street",
    "city": "Oak Park",
    "state": "IL",
    "zip": "60302",
    "phone": "",
    "products": ["eggs", "milk", "butter"]
  },
  {
    "id": "0bee53784eea",
    "name": "Pete’s Fresh Market",
    "desc": "",
    "street": "17w675 Roosevelt Road",
    "city": "Oakbrook Terrace",
    "state": "IL",
    "zip": "60181",
    "phone": "",
    "products": ["eggs", "milk", "butter"]
  },
  {
    "id": "486c8acd3668",
    "name": "Pete’s Fresh Market",
    "desc": "",
    "street": "151 Rice Lake Square",
    "city": "Wheaton",
    "state": "IL",
    "zip": "60189",
    "phone": "",
    "products": ["eggs", "milk", "butter"]
  },
  {
    "id": "1f35de9275fc",
    "name": "Pete’s Fresh Market",
    "desc": "",
    "street": "840 Plainfield Road",
    "city": "Willowbook",
    "state": "IL",
    "zip": "60527",
    "phone": "",
    "products": ["eggs", "milk", "butter"]
  },
  {
    "id": "ed992a5e2be0",
    "name": "Pete’s Fresh Market",
    "desc": "",
    "street": "3720 W. 95th Street",
    "city": "Evergreen Park",
    "state": "IL",
    "zip": "60805",
    "phone": "",
    "products": ["eggs", "milk", "butter"]
  },
  {
    "id": "0873e2a3212a",
    "name": "Polish Delicatessen Inc",
    "desc": "",
    "street": "542 E. North Ave",
    "city": "Glendale Hieights",
    "state": "IL",
    "zip": "60139",
    "phone": "",
    "products": ["eggs", "milk"]
  },
  {
    "id": "d2ebb8a4e991",
    "name": "Product Depot",
    "desc": "",
    "street": "8750 Silver Maple Cove",
    "city": "Saint John",
    "state": "IN",
    "zip": "46373",
    "phone": "",
    "products": ["eggs", "butter", "chicken", "jam"]
  },
  {
    "id": "024f724bfc9d",
    "name": "Produce World",
    "desc": "",
    "street": "9325 West Lawrence",
    "city": "Norridge",
    "state": "IL",
    "zip": "60706",
    "phone": "",
    "products": ["eggs", "butter", "honey", "jam"]
  },
  {
    "id": "3877756a7194",
    "name": "Pulaski Polish Deli & Bakery",
    "desc": "",
    "street": "7141 W. Addison St",
    "city": "Chicago",
    "state": "IL",
    "zip": "60634",
    "phone": "",
    "products": ["eggs", "butter", "chicken", "honey"]
  },
  {
    "id": "da0dc4cd41cc",
    "name": "Rich's Deli",
    "desc": "",
    "street": "857 N. Western Ave",
    "city": "Chicago",
    "state": "IL",
    "zip": "60622",
    "phone": "",
    "products": ["eggs", "milk"]
  },
  {
    "id": "5b10a308208d",
    "name": "Rich's Food & Liquor",
    "desc": "",
    "street": "4747 N Harlem",
    "city": "Harwood Heights",
    "state": "IL",
    "zip": "60706",
    "phone": "",
    "products": ["eggs", "butter", "chicken", "honey"]
  },
  {
    "id": "4ec21fe0c89a",
    "name": "Mariano's",
    "desc": "",
    "street": "802 E. Northwest Highway",
    "city": "Arlington Heights",
    "state": "IL",
    "zip": "60004",
    "phone": "",
    "products": ["eggs"]
  },
  {
    "id": "42f0176a8cd0",
    "name": "Mariano's",
    "desc": "",
    "street": "3025 E. New York St",
    "city": "Auroroa",
    "state": "IL",
    "zip": "60504",
    "phone": "",
    "products": ["eggs"]
  },
  {
    "id": "4178f66c33d5",
    "name": "Mariano's",
    "desc": "",
    "street": "2999 Waukegan Road",
    "city": "Bannockburn",
    "state": "IL",
    "zip": "60015",
    "phone": "",
    "products": ["eggs"]
  },
  {
    "id": "25fc293c311e",
    "name": "Mariano's",
    "desc": "",
    "street": "333 E Benton Place",
    "city": "Chicago",
    "state": "IL",
    "zip": "60601",
    "phone": "",
    "products": ["eggs"]
  },
  {
    "id": "384bb967472c",
    "name": "Mariano's",
    "desc": "",
    "street": "144 Gary Ave",
    "city": "Bloomingdale",
    "state": "IL",
    "zip": "60108",
    "phone": "",
    "products": ["eggs"]
  },
  {
    "id": "977520565d25",
    "name": "Mariano's",
    "desc": "",
    "street": "3145 S. Ashland Ave",
    "city": "Chicago",
    "state": "IL",
    "zip": "60608",
    "phone": "",
    "products": ["eggs"]
  },
  {
    "id": "73e5bb4c2c90",
    "name": "Mariano's",
    "desc": "",
    "street": "3030 North Broadway",
    "city": "Chicago",
    "state": "IL",
    "zip": "60657",
    "phone": "",
    "products": ["eggs"]
  },
  {
    "id": "691f68e23523",
    "name": "Mariano's",
    "desc": "",
    "street": "3857 South Dr. Martin Luther King",
    "city": "Chicago",
    "state": "IL",
    "zip": "60653",
    "phone": "",
    "products": ["eggs"]
  },
  {
    "id": "41847a988d30",
    "name": "Mariano's",
    "desc": "",
    "street": "2112 N. Ashland",
    "city": "Chicago",
    "state": "IL",
    "zip": "60614",
    "phone": "",
    "products": ["eggs"]
  },
  {
    "id": "6a9581a9ebc7",
    "name": "Mariano's",
    "desc": "",
    "street": "450 W. Half Day Road",
    "city": "Buffalo Grove",
    "state": "IL",
    "zip": "60089",
    "phone": "",
    "products": ["eggs"]
  },
  {
    "id": "4bb7b56fc702",
    "name": "Mariano's",
    "desc": "",
    "street": "105 Northwest Highway",
    "city": "Crystal Lake",
    "state": "IL",
    "zip": "60014",
    "phone": "",
    "products": ["eggs"]
  },
  {
    "id": "f1f26bda831b",
    "name": "Mariano's",
    "desc": "",
    "street": "10 E. Golf Road",
    "city": "Des Plaines",
    "state": "IL",
    "zip": "60016",
    "phone": "",
    "products": ["eggs"]
  },
  {
    "id": "cb680fb7171d",
    "name": "Mariano's",
    "desc": "",
    "street": "5201 N. Sheridan Road",
    "city": "Chicago",
    "state": "IL",
    "zip": "60640",
    "phone": "",
    "products": ["eggs"]
  },
  {
    "id": "d2c335d904d0",
    "name": "Mariano's",
    "desc": "",
    "street": "678 N. York Street",
    "city": "Elmhurst",
    "state": "IL",
    "zip": "60126",
    "phone": "",
    "products": ["eggs"]
  },
  {
    "id": "a7bab630f627",
    "name": "Mariano's",
    "desc": "",
    "street": "2559 West 95th Street",
    "city": "Evergreen Park",
    "state": "IL",
    "zip": "60805",
    "phone": "",
    "products": ["eggs"]
  },
  {
    "id": "e491a19d401a",
    "name": "Mariano's",
    "desc": "",
    "street": "21001 S. LaGrange Rd",
    "city": "Frankfort",
    "state": "IL",
    "zip": "60423",
    "phone": "",
    "products": ["eggs"]
  },
  {
    "id": "5a5786cdf4d9",
    "name": "Mariano's",
    "desc": "",
    "street": "25 Waukegan Road",
    "city": "Glenview",
    "state": "IL",
    "zip": "60025",
    "phone": "",
    "products": ["eggs"]
  },
  {
    "id": "4a10cbb53242",
    "name": "Mariano's",
    "desc": "",
    "street": "2323 Capital Drive",
    "city": "Northbrook",
    "state": "IL",
    "zip": "60062",
    "phone": "",
    "products": ["eggs"]
  },
  {
    "id": "f73ca1fb1491",
    "name": "Mariano's",
    "desc": "",
    "street": "6655 Grand Ave",
    "city": "Gurnee",
    "state": "IL",
    "zip": "60031",
    "phone": "",
    "products": ["eggs"]
  },
  {
    "id": "1ce9f5b5460f",
    "name": "Mariano's",
    "desc": "",
    "street": "7401 W. Lawrence Ave",
    "city": "Harwood Heights",
    "state": "IL",
    "zip": "60706",
    "phone": "",
    "products": ["eggs"]
  },
  {
    "id": "da0b45ba625d",
    "name": "Mariano's",
    "desc": "",
    "street": "2575 W Golf Road",
    "city": "Hoffman Estates",
    "state": "IL",
    "zip": "60169",
    "phone": "",
    "products": ["eggs"]
  },
  {
    "id": "1496df8a6540",
    "name": "Mariano's",
    "desc": "",
    "street": "5353 N. Elston",
    "city": "Chicago",
    "state": "IL",
    "zip": "60630",
    "phone": "",
    "products": ["eggs"]
  },
  {
    "id": "647bc4d835ee",
    "name": "Mariano's",
    "desc": "",
    "street": "1350 East Route 22",
    "city": "Lake Zurich",
    "state": "IL",
    "zip": "60047",
    "phone": "",
    "products": ["eggs"]
  },
  {
    "id": "8cf6cce742a7",
    "name": "Mariano's",
    "desc": "",
    "street": "345 W Roosevelt Road",
    "city": "Lombard",
    "state": "IL",
    "zip": "60148",
    "phone": "",
    "products": ["eggs"]
  },
  {
    "id": "afc61f0e77ab",
    "name": "Mariano's",
    "desc": "",
    "street": "1300 S. Naper Boulevard",
    "city": "Naperville",
    "state": "IL",
    "zip": "60540",
    "phone": "",
    "products": ["eggs"]
  },
  {
    "id": "c9c6423774cf",
    "name": "Mariano's",
    "desc": "",
    "street": "1500 N Clybourn Ave",
    "city": "Chicago",
    "state": "IL",
    "zip": "60610",
    "phone": "",
    "products": ["eggs"]
  },
  {
    "id": "6931042b6dcb",
    "name": "Mariano's",
    "desc": "",
    "street": "784 Skokie Blvd",
    "city": "Northbrook",
    "state": "IL",
    "zip": "60062",
    "phone": "",
    "products": ["eggs"]
  },
  {
    "id": "383a46d1e486",
    "name": "Mariano's",
    "desc": "",
    "street": "1822 Willow Road",
    "city": "Northfield",
    "state": "IL",
    "zip": "60093",
    "phone": "",
    "products": ["eggs"]
  },
  {
    "id": "f99ef66554b1",
    "name": "Mariano's",
    "desc": "",
    "street": "11000 S. Cicero Ave",
    "city": "Oak Lawn",
    "state": "IL",
    "zip": "60453",
    "phone": "",
    "products": ["eggs"]
  },
  {
    "id": "207bd94c7089",
    "name": "Mariano's",
    "desc": "",
    "street": "9504 142nd Street",
    "city": "Orland Park",
    "state": "IL",
    "zip": "60462",
    "phone": "",
    "products": ["eggs"]
  },
  {
    "id": "c98935b00a61",
    "name": "Mariano's",
    "desc": "",
    "street": "545 N. Hicks Road",
    "city": "Palatine",
    "state": "IL",
    "zip": "60067",
    "phone": "",
    "products": ["eggs"]
  },
  {
    "id": "5a3d84217e52",
    "name": "Mariano's",
    "desc": "",
    "street": "1900 S. Cumberland",
    "city": "Park Ridge",
    "state": "IL",
    "zip": "60068",
    "phone": "",
    "products": ["eggs"]
  },
  {
    "id": "0e616a04b89b",
    "name": "Mariano's",
    "desc": "",
    "street": "1800 West Lawrence Ave",
    "city": "Chicago",
    "state": "IL",
    "zip": "60640",
    "phone": "",
    "products": ["eggs"]
  },
  {
    "id": "60284a62f1ff",
    "name": "Mariano's",
    "desc": "",
    "street": "950 Brock Forest Avenue",
    "city": "Shorewood",
    "state": "IL",
    "zip": "60404",
    "phone": "",
    "products": ["eggs"]
  },
  {
    "id": "480be8e86385",
    "name": "Mariano's",
    "desc": "",
    "street": "3358 West Touhy Ave",
    "city": "Skokie",
    "state": "IL",
    "zip": "60076",
    "phone": "",
    "products": ["eggs"]
  },
  {
    "id": "ecd8ae4a84b3",
    "name": "Mariano's",
    "desc": "",
    "street": "1615 S Clark Street",
    "city": "Chicago",
    "state": "IL",
    "zip": "60616",
    "phone": "",
    "products": ["eggs"]
  },
  {
    "id": "89d250bd5082",
    "name": "Mariano's",
    "desc": "",
    "street": "2021 W. Chicago",
    "city": "Chicago",
    "state": "IL",
    "zip": "60622",
    "phone": "",
    "products": ["eggs"]
  },
  {
    "id": "172e1d16c925",
    "name": "Mariano's",
    "desc": "",
    "street": "1720 N. Milwaukee Ave",
    "city": "Vernon Hills",
    "state": "IL",
    "zip": "60061",
    "phone": "",
    "products": ["eggs"]
  },
  {
    "id": "8232ebe91a79",
    "name": "Mariano's",
    "desc": "",
    "street": "40 S. Halsted",
    "city": "Chicago",
    "state": "IL",
    "zip": "60661",
    "phone": "",
    "products": ["eggs"]
  },
  {
    "id": "05cc331cab99",
    "name": "Mariano's",
    "desc": "",
    "street": "3020 Wolf Road",
    "city": "Westchester",
    "state": "IL",
    "zip": "60154",
    "phone": "",
    "products": ["eggs"]
  },
  {
    "id": "e628040afb17",
    "name": "Mariano's",
    "desc": "",
    "street": "3350 N. Western Ave",
    "city": "Chicago",
    "state": "IL",
    "zip": "60618",
    "phone": "",
    "products": ["eggs"]
  },
  {
    "id": "8049914dc284",
    "name": "Mariano's",
    "desc": "",
    "street": "4700 Gilbert Ave",
    "city": "Western Springs",
    "state": "IL",
    "zip": "60558",
    "phone": "",
    "products": ["eggs"]
  },
  {
    "id": "8dad5acc9876",
    "name": "Mariano's",
    "desc": "",
    "street": "150 W. 63rd Street",
    "city": "Westmont",
    "state": "IL",
    "zip": "60559",
    "phone": "",
    "products": ["eggs"]
  },
  {
    "id": "3363108b05bf",
    "name": "Mariano's",
    "desc": "",
    "street": "625 S. Main Street",
    "city": "Wheaton",
    "state": "IL",
    "zip": "60187",
    "phone": "",
    "products": ["eggs"]
  },
  {
    "id": "6071bc739eda",
    "name": "Sam's Farmer's Market",
    "desc": "",
    "street": "1045 East Oakton",
    "city": "Des PLaines",
    "state": "IL",
    "zip": "60018",
    "phone": "",
    "products": ["eggs", "milk", "butter"]
  },
  {
    "id": "46d9839e3b9d",
    "name": "Shop & Save Market",
    "desc": "",
    "street": "5829 South Archer Ave",
    "city": "Chicago",
    "state": "IL",
    "zip": "60638",
    "phone": "",
    "products": ["eggs", "milk", "butter", "chicken"]
  },
  {
    "id": "9785b4c0083a",
    "name": "Shop & Save Market",
    "desc": "",
    "street": "8847 S. Harlem",
    "city": "Bridgeview",
    "state": "IL",
    "zip": "60455",
    "phone": "",
    "products": ["eggs", "milk", "butter", "honey", "jam"]
  },
  {
    "id": "27ad18fcb41c",
    "name": "Shop & Save Market",
    "desc": "",
    "street": "518 Metropolitan Way",
    "city": "Des Plaines",
    "state": "IL",
    "zip": "60016",
    "phone": "",
    "products": ["eggs", "milk", "butter", "honey", "jam"]
  },
  {
    "id": "cdc917899b71",
    "name": "Shop & Save Market",
    "desc": "",
    "street": "6312 N. Nagle Ave",
    "city": "Chicago",
    "state": "IL",
    "zip": "60646",
    "phone": "",
    "products": ["eggs", "milk", "butter", "chicken"]
  },
  {
    "id": "68c0909969de",
    "name": "Smakowski's Deli",
    "desc": "",
    "street": "6744 W. Belmont",
    "city": "Chicago",
    "state": "IL",
    "zip": "60634",
    "phone": "",
    "products": ["eggs"]
  },
  {
    "id": "1d6cb08bbc6c",
    "name": "Smakowski's Deli",
    "desc": "",
    "street": "1538 N. Rand Road",
    "city": "Palatine",
    "state": "IL",
    "zip": "60074",
    "phone": "",
    "products": ["eggs", "milk", "butter"]
  },
  {
    "id": "6d86e4588c2a",
    "name": "Stefania's Deli",
    "desc": "",
    "street": "5050 N. Cumberland",
    "city": "Norridge",
    "state": "IL",
    "zip": "60706",
    "phone": "",
    "products": ["eggs", "milk", "honey"]
  },
  {
    "id": "d2c196d4ac35",
    "name": "Szymanski Deli & Liquors",
    "desc": "",
    "street": "6016 W. Irving Park Road",
    "city": "Chicago",
    "state": "IL",
    "zip": "60634",
    "phone": "",
    "products": ["eggs"]
  },
  {
    "id": "d6f1f6c33438",
    "name": "Ted's Fresh Market",
    "desc": "",
    "street": "2840 W. Devon Ave",
    "city": "Chicago",
    "state": "IL",
    "zip": "60659",
    "phone": "",
    "products": ["eggs", "milk", "butter"]
  },
  {
    "id": "d6fe9084e3c8",
    "name": "Tony's Fresh Market",
    "desc": "",
    "street": "1241 N. Rand Rd",
    "city": "Prospect Heights",
    "state": "IL",
    "zip": "60004",
    "phone": "",
    "products": ["eggs"]
  },
  {
    "id": "4c5d4c867671",
    "name": "Tony's Fresh Market",
    "desc": "",
    "street": "5630 W. Belmont Ave",
    "city": "Chicago",
    "state": "IL",
    "zip": "60634",
    "phone": "",
    "products": ["eggs"]
  },
  {
    "id": "260fdf3ce5eb",
    "name": "Tony's Fresh Market",
    "desc": "",
    "street": "7111 Cermak Road",
    "city": "Berwyn",
    "state": "IL",
    "zip": "60402",
    "phone": "",
    "products": ["eggs"]
  },
  {
    "id": "e251f443fe9a",
    "name": "Tony's Fresh Market",
    "desc": "",
    "street": "271 S. Bolingbrook Drive",
    "city": "Bolingbrook",
    "state": "IL",
    "zip": "60440",
    "phone": "",
    "products": ["eggs"]
  },
  {
    "id": "c88a0df69920",
    "name": "Tony's Fresh Market",
    "desc": "",
    "street": "8630 S. Harlem Ave",
    "city": "Bridgeview",
    "state": "IL",
    "zip": "60455",
    "phone": "",
    "products": ["eggs"]
  },
  {
    "id": "d977a4ceb646",
    "name": "Tony's Fresh Market",
    "desc": "",
    "street": "7770 S Cicero Ave",
    "city": "Burbank",
    "state": "IL",
    "zip": "60459",
    "phone": "",
    "products": ["eggs"]
  },
  {
    "id": "69d2843d7978",
    "name": "Tony's Fresh Market",
    "desc": "",
    "street": "6704 Joliet Rd",
    "city": "Countryside",
    "state": "IL",
    "zip": "60525",
    "phone": "",
    "products": ["eggs"]
  },
  {
    "id": "a13c1288200d",
    "name": "Tony's Fresh Market",
    "desc": "",
    "street": "4137 N. Elston Ave",
    "city": "Chicago",
    "state": "IL",
    "zip": "60618",
    "phone": "",
    "products": ["eggs"]
  },
  {
    "id": "b7434c9d8c7a",
    "name": "Tony's Fresh Market",
    "desc": "",
    "street": "3607 W. Fullerton Ave",
    "city": "Chicago",
    "state": "IL",
    "zip": "60647",
    "phone": "",
    "products": ["eggs"]
  },
  {
    "id": "16a4bc2a188a",
    "name": "Tony's Fresh Market",
    "desc": "",
    "street": "7580 Barrington Rd",
    "city": "Hanover Park",
    "state": "IL",
    "zip": "60133",
    "phone": "",
    "products": ["eggs"]
  },
  {
    "id": "1a9d2580cb90",
    "name": "Tony's Fresh Market",
    "desc": "",
    "street": "5233 N. Lincoln Ave",
    "city": "Chicago",
    "state": "IL",
    "zip": "60625",
    "phone": "",
    "products": ["eggs"]
  },
  {
    "id": "67784593ad47",
    "name": "Tony's Fresh Market",
    "desc": "",
    "street": "2099 N. Mannheim Rd",
    "city": "Melrose Park",
    "state": "IL",
    "zip": "60160",
    "phone": "",
    "products": ["eggs"]
  },
  {
    "id": "cfb56ba82136",
    "name": "Tony's Fresh Market",
    "desc": "",
    "street": "8900 N. Greenwood Ave",
    "city": "Niles",
    "state": "IL",
    "zip": "60714",
    "phone": "",
    "products": ["eggs"]
  },
  {
    "id": "f023284f518f",
    "name": "Tony's Fresh Market",
    "desc": "",
    "street": "2300 Illinois Route 59",
    "city": "Plainfield",
    "state": "IL",
    "zip": "60586",
    "phone": "",
    "products": ["eggs"]
  },
  {
    "id": "070f8aa143ee",
    "name": "Tony's Fresh Market",
    "desc": "",
    "street": "1241 N. Rand Rd",
    "city": "Prospect Heights",
    "state": "IL",
    "zip": "60004",
    "phone": "",
    "products": ["eggs"]
  },
  {
    "id": "518ef8f26101",
    "name": "Valli Produce",
    "desc": "",
    "street": "450 E Golf Rd",
    "city": "Arlington Heights",
    "state": "IL",
    "zip": "60005",
    "phone": "",
    "products": ["eggs", "milk", "butter", "honey"]
  },
  {
    "id": "157ed182c5a6",
    "name": "Valli Produce",
    "desc": "",
    "street": "1910 Dempster St",
    "city": "Evanson",
    "state": "IL",
    "zip": "60202",
    "phone": "",
    "products": ["eggs", "milk", "butter"]
  },
  {
    "id": "f973dfbcef68",
    "name": "Valli Produce",
    "desc": "",
    "street": "155 E. North Ave",
    "city": "Glendale Heights",
    "state": "IL",
    "zip": "60139",
    "phone": "",
    "products": ["eggs", "milk", "butter", "honey", "jam"]
  },
  {
    "id": "e594c4105c41",
    "name": "Valli Produce",
    "desc": "",
    "street": "850 N Roselle Rd",
    "city": "Hoffman Estates",
    "state": "IL",
    "zip": "60194",
    "phone": "",
    "products": ["eggs", "milk", "butter", "honey", "jam"]
  },
  {
    "id": "501e8d989dd8",
    "name": "Fresh Farms",
    "desc": "",
    "street": "20 South Milwaukee Ave",
    "city": "Wheeling",
    "state": "IL",
    "zip": "60090",
    "phone": "",
    "products": ["eggs", "milk", "butter", "honey", "jam"]
  },
  {
    "id": "575803905612",
    "name": "Woodman's Food Market",
    "desc": "",
    "street": "1550 Deerfield Pkwy",
    "city": "Buffalo Grove",
    "state": "IL",
    "zip": "60089",
    "phone": "",
    "products": ["eggs", "milk", "butter"]
  },
  {
    "id": "feeb3c48784b",
    "name": "Woodman's Food Market",
    "desc": "",
    "street": "2100 Randall Road",
    "city": "Carpentersville",
    "state": "IL",
    "zip": "60110",
    "phone": "",
    "products": ["eggs", "milk", "butter"]
  },
  {
    "id": "092648cac486",
    "name": "Woodman's Food Market",
    "desc": "",
    "street": "27555 IL Route 120",
    "city": "Lakemoor",
    "state": "IL",
    "zip": "60051",
    "phone": "",
    "products": ["eggs", "milk", "butter"]
  }
]

